start=new Date('2022-01-07T00:00:00.000Z').valueOf();
sats=[{"OBJECT_ID":"2019-074AS","SITE":"AFETR","CENTER_NAME":"EARTH","ELEMENT_SET_NO":"999","EPHEMERIS_TYPE":"0","INCLINATION":"53.0518","MEAN_ELEMENT_THEORY":"SGP4","DECAY_DATE":null,"ECCENTRICITY":"0.00021820","OBJECT_TYPE":"PAYLOAD","SEMIMAJOR_AXIS":"6925.391","REF_FRAME":"TEME","MEAN_MOTION":"15.06386181","COUNTRY_CODE":"US","TIME_SYSTEM":"UTC","PERIOD":"95.593","CLASSIFICATION_TYPE":"U","REV_AT_EPOCH":"11921","RCS_SIZE":"LARGE","EPOCH":"2022-01-06T19:12:14.782176","BSTAR":"0.00004696500000","RA_OF_ASC_NODE":"183.1389","ARG_OF_PERICENTER":"84.5509","NORAD_CAT_ID":"44753","TLE_LINE2":"2 44753  53.0518 183.1389 0002182  84.5509 275.5729 15.06386181119214","TLE_LINE1":"1 44753U 19074AS  22006.80017109  .00000418  00000-0  46965-4 0  9997","LAUNCH_DATE":"2019-11-11","MEAN_MOTION_DOT":"0.00000418","GP_ID":"193352348","MEAN_ANOMALY":"275.5729","PERIAPSIS":"545.745","OBJECT_NAME":"STARLINK-1048","APOAPSIS":"548.767","FILE":"3265870","MEAN_MOTION_DDOT":"0.0000000000000"},{"MEAN_MOTION_DOT":"0.00000419","GP_ID":"193353099","OBJECT_NAME":"STARLINK-1049","PERIAPSIS":"545.650","MEAN_ANOMALY":"271.3955","MEAN_MOTION_DDOT":"0.0000000000000","APOAPSIS":"548.773","FILE":"3265870","TLE_LINE2":"2 44754  53.0541 182.8283 0002255  88.7292 271.3955 15.06400738119227","TLE_LINE1":"1 44754U 19074AT  22006.87020080  .00000419  00000-0  47065-4 0  9990","LAUNCH_DATE":"2019-11-11","REF_FRAME":"TEME","SEMIMAJOR_AXIS":"6925.346","COUNTRY_CODE":"US","MEAN_MOTION":"15.06400738","ECCENTRICITY":"0.00022550","OBJECT_TYPE":"PAYLOAD","CLASSIFICATION_TYPE":"U","TIME_SYSTEM":"UTC","PERIOD":"95.592","RCS_SIZE":"LARGE","REV_AT_EPOCH":"11922","ARG_OF_PERICENTER":"88.7292","NORAD_CAT_ID":"44754","EPOCH":"2022-01-06T20:53:05.349120","RA_OF_ASC_NODE":"182.8283","BSTAR":"0.00004706500000","OBJECT_ID":"2019-074AT","EPHEMERIS_TYPE":"0","SITE":"AFETR","CENTER_NAME":"EARTH","ELEMENT_SET_NO":"999","DECAY_DATE":null,"INCLINATION":"53.0541","MEAN_ELEMENT_THEORY":"SGP4"},{"OBJECT_TYPE":"PAYLOAD","ECCENTRICITY":"0.00022740","MEAN_MOTION":"15.06395024","COUNTRY_CODE":"US","REF_FRAME":"TEME","SEMIMAJOR_AXIS":"6925.364","PERIOD":"95.592","TIME_SYSTEM":"UTC","CLASSIFICATION_TYPE":"U","REV_AT_EPOCH":"11921","RCS_SIZE":"LARGE","RA_OF_ASC_NODE":"222.9041","BSTAR":"0.00011810000000","EPOCH":"2022-01-06T20:30:29.683872","NORAD_CAT_ID":"44755","ARG_OF_PERICENTER":"65.2542","OBJECT_ID":"2019-074AU","SITE":"AFETR","ELEMENT_SET_NO":"999","CENTER_NAME":"EARTH","EPHEMERIS_TYPE":"0","MEAN_ELEMENT_THEORY":"SGP4","INCLINATION":"53.0498","DECAY_DATE":null,"GP_ID":"193351347","MEAN_MOTION_DOT":"0.00001477","PERIAPSIS":"545.654","MEAN_ANOMALY":"294.8683","OBJECT_NAME":"STARLINK-1050","APOAPSIS":"548.804","FILE":"3265870","MEAN_MOTION_DDOT":"0.0000000000000","TLE_LINE2":"2 44755  53.0498 222.9041 0002274  65.2542 294.8683 15.06395024119214","TLE_LINE1":"1 44755U 19074AU  22006.85451023  .00001477  00000-0  11810-3 0  9997","LAUNCH_DATE":"2019-11-11"},{"CLASSIFICATION_TYPE":"U","TIME_SYSTEM":"UTC","PERIOD":"95.592","REF_FRAME":"TEME","SEMIMAJOR_AXIS":"6925.342","COUNTRY_CODE":"US","MEAN_MOTION":"15.06402224","ECCENTRICITY":"0.00024230","OBJECT_TYPE":"PAYLOAD","ARG_OF_PERICENTER":"76.5202","NORAD_CAT_ID":"44757","EPOCH":"2022-01-06T19:20:11.047488","BSTAR":"0.00006925100000","RA_OF_ASC_NODE":"203.1092","RCS_SIZE":"LARGE","REV_AT_EPOCH":"11893","OBJECT_ID":"2019-074AW","DECAY_DATE":null,"INCLINATION":"53.0550","MEAN_ELEMENT_THEORY":"SGP4","EPHEMERIS_TYPE":"0","SITE":"AFETR","CENTER_NAME":"EARTH","ELEMENT_SET_NO":"999","OBJECT_NAME":"STARLINK-1052","PERIAPSIS":"545.529","MEAN_ANOMALY":"283.6057","MEAN_MOTION_DOT":"0.00000750","GP_ID":"193351597","MEAN_MOTION_DDOT":"0.0000000000000","APOAPSIS":"548.885","FILE":"3265870","TLE_LINE1":"1 44757U 19074AW  22006.80568342  .00000750  00000-0  69251-4 0  9993","TLE_LINE2":"2 44757  53.0550 203.1092 0002423  76.5202 283.6057 15.06402224118936","LAUNCH_DATE":"2019-11-11"},{"TLE_LINE1":"1 44758U 19074AX  22006.88030150  .00000442  00000-0  48575-4 0  9997","TLE_LINE2":"2 44758  53.0550 222.7720 0002158  64.5314 295.5898 15.06397018118678","LAUNCH_DATE":"2019-11-11","MEAN_ANOMALY":"295.5898","PERIAPSIS":"545.728","OBJECT_NAME":"STARLINK-1053","GP_ID":"193352849","MEAN_MOTION_DOT":"0.00000442","APOAPSIS":"548.717","FILE":"3265870","MEAN_MOTION_DDOT":"0.0000000000000","OBJECT_ID":"2019-074AX","MEAN_ELEMENT_THEORY":"SGP4","INCLINATION":"53.0550","DECAY_DATE":null,"CENTER_NAME":"EARTH","SITE":"AFETR","ELEMENT_SET_NO":"999","EPHEMERIS_TYPE":"0","PERIOD":"95.592","TIME_SYSTEM":"UTC","CLASSIFICATION_TYPE":"U","OBJECT_TYPE":"PAYLOAD","ECCENTRICITY":"0.00021580","COUNTRY_CODE":"US","MEAN_MOTION":"15.06397018","REF_FRAME":"TEME","SEMIMAJOR_AXIS":"6925.358","BSTAR":"0.00004857500000","RA_OF_ASC_NODE":"222.7720","EPOCH":"2022-01-06T21:07:38.049600","NORAD_CAT_ID":"44758","ARG_OF_PERICENTER":"64.5314","REV_AT_EPOCH":"11867","RCS_SIZE":"LARGE"},{"CLASSIFICATION_TYPE":"U","TIME_SYSTEM":"UTC","PERIOD":"95.593","SEMIMAJOR_AXIS":"6925.369","REF_FRAME":"TEME","MEAN_MOTION":"15.06393320","COUNTRY_CODE":"US","ECCENTRICITY":"0.00020420","OBJECT_TYPE":"PAYLOAD","ARG_OF_PERICENTER":"72.0467","NORAD_CAT_ID":"44759","EPOCH":"2022-01-06T20:53:07.713024","BSTAR":"0.00007435900000","RA_OF_ASC_NODE":"222.8342","RCS_SIZE":"LARGE","REV_AT_EPOCH":"11631","OBJECT_ID":"2019-074AY","DECAY_DATE":null,"INCLINATION":"53.0543","MEAN_ELEMENT_THEORY":"SGP4","EPHEMERIS_TYPE":"0","SITE":"AFETR","CENTER_NAME":"EARTH","ELEMENT_SET_NO":"999","OBJECT_NAME":"STARLINK-1054","MEAN_ANOMALY":"288.0744","PERIAPSIS":"545.820","MEAN_MOTION_DOT":"0.00000826","GP_ID":"193352599","MEAN_MOTION_DDOT":"0.0000000000000","APOAPSIS":"548.648","FILE":"3265870","TLE_LINE1":"1 44759U 19074AY  22006.87022816  .00000826  00000-0  74359-4 0  9992","TLE_LINE2":"2 44759  53.0543 222.8342 0002042  72.0467 288.0744 15.06393320116315","LAUNCH_DATE":"2019-11-11"},{"MEAN_MOTION_DDOT":"0.0000000000000","APOAPSIS":"548.660","FILE":"3265870","GP_ID":"193351848","MEAN_MOTION_DOT":"0.00001071","OBJECT_NAME":"STARLINK-1055","MEAN_ANOMALY":"289.4627","PERIAPSIS":"545.814","LAUNCH_DATE":"2019-11-11","TLE_LINE2":"2 44760  53.0542 222.8802 0002055  70.6584 289.4627 15.06392439118671","TLE_LINE1":"1 44760U 19074AZ  22006.85545499  .00001071  00000-0  90811-4 0  9993","RCS_SIZE":"LARGE","REV_AT_EPOCH":"11867","NORAD_CAT_ID":"44760","ARG_OF_PERICENTER":"70.6584","RA_OF_ASC_NODE":"222.8802","BSTAR":"0.00009081100000","EPOCH":"2022-01-06T20:31:51.311136","MEAN_MOTION":"15.06392439","COUNTRY_CODE":"US","REF_FRAME":"TEME","SEMIMAJOR_AXIS":"6925.372","OBJECT_TYPE":"PAYLOAD","ECCENTRICITY":"0.00020550","CLASSIFICATION_TYPE":"U","PERIOD":"95.593","TIME_SYSTEM":"UTC","EPHEMERIS_TYPE":"0","SITE":"AFETR","ELEMENT_SET_NO":"999","CENTER_NAME":"EARTH","DECAY_DATE":null,"MEAN_ELEMENT_THEORY":"SGP4","INCLINATION":"53.0542","OBJECT_ID":"2019-074AZ"},{"OBJECT_ID":"2019-074BA","CENTER_NAME":"EARTH","SITE":"AFETR","ELEMENT_SET_NO":"999","EPHEMERIS_TYPE":"0","MEAN_ELEMENT_THEORY":"SGP4","INCLINATION":"53.0534","DECAY_DATE":null,"OBJECT_TYPE":"PAYLOAD","ECCENTRICITY":"0.00021000","COUNTRY_CODE":"US","MEAN_MOTION":"15.06396201","SEMIMAJOR_AXIS":"6925.360","REF_FRAME":"TEME","PERIOD":"95.592","TIME_SYSTEM":"UTC","CLASSIFICATION_TYPE":"U","REV_AT_EPOCH":"11867","RCS_SIZE":"LARGE","RA_OF_ASC_NODE":"222.8391","BSTAR":"0.00011701000000","EPOCH":"2022-01-06T20:47:46.566816","NORAD_CAT_ID":"44761","ARG_OF_PERICENTER":"63.4126","TLE_LINE2":"2 44761  53.0534 222.8391 0002100  63.4126 296.7078 15.06396201118671","TLE_LINE1":"1 44761U 19074BA  22006.86651119  .00001461  00000-0  11701-3 0  9995","LAUNCH_DATE":"2019-11-11","GP_ID":"193352098","MEAN_MOTION_DOT":"0.00001461","MEAN_ANOMALY":"296.7078","PERIAPSIS":"545.771","OBJECT_NAME":"STARLINK-1056","FILE":"3265870","APOAPSIS":"548.680","MEAN_MOTION_DDOT":"0.0000000000000"},{"MEAN_ELEMENT_THEORY":"SGP4","INCLINATION":"53.0529","DECAY_DATE":null,"SITE":"AFETR","ELEMENT_SET_NO":"999","CENTER_NAME":"EARTH","EPHEMERIS_TYPE":"0","OBJECT_ID":"2019-074BB","RA_OF_ASC_NODE":"202.8239","BSTAR":"-0.00002423900000","EPOCH":"2022-01-06T20:50:24.592416","NORAD_CAT_ID":"44762","ARG_OF_PERICENTER":"70.5690","REV_AT_EPOCH":"11894","RCS_SIZE":"LARGE","PERIOD":"95.592","TIME_SYSTEM":"UTC","CLASSIFICATION_TYPE":"U","OBJECT_TYPE":"PAYLOAD","ECCENTRICITY":"0.00024200","COUNTRY_CODE":"US","MEAN_MOTION":"15.06406242","REF_FRAME":"TEME","SEMIMAJOR_AXIS":"6925.329","LAUNCH_DATE":"2019-11-11","TLE_LINE1":"1 44762U 19074BB  22006.86834019 -.00000643  00000-0 -24239-4 0  9992","TLE_LINE2":"2 44762  53.0529 202.8239 0002420  70.5690 289.5560 15.06406242118948","APOAPSIS":"548.870","FILE":"3265870","MEAN_MOTION_DDOT":"0.0000000000000","MEAN_ANOMALY":"289.5560","PERIAPSIS":"545.518","OBJECT_NAME":"STARLINK-1057","GP_ID":"193352349","MEAN_MOTION_DOT":"-0.00000643"},{"ARG_OF_PERICENTER":"69.4004","NORAD_CAT_ID":"44763","EPOCH":"2022-01-06T21:19:37.066944","BSTAR":"-0.00006137100000","RA_OF_ASC_NODE":"222.7484","RCS_SIZE":"LARGE","REV_AT_EPOCH":"11867","CLASSIFICATION_TYPE":"U","TIME_SYSTEM":"UTC","PERIOD":"95.593","REF_FRAME":"TEME","SEMIMAJOR_AXIS":"6925.389","MEAN_MOTION":"15.06386803","COUNTRY_CODE":"US","ECCENTRICITY":"0.00019950","OBJECT_TYPE":"PAYLOAD","DECAY_DATE":null,"INCLINATION":"53.0543","MEAN_ELEMENT_THEORY":"SGP4","EPHEMERIS_TYPE":"0","SITE":"AFETR","CENTER_NAME":"EARTH","ELEMENT_SET_NO":"999","OBJECT_ID":"2019-074BC","MEAN_MOTION_DDOT":"0.0000000000000","FILE":"3265870","APOAPSIS":"548.636","OBJECT_NAME":"STARLINK-1058","MEAN_ANOMALY":"290.7199","PERIAPSIS":"545.872","MEAN_MOTION_DOT":"-0.00001195","GP_ID":"193353100","LAUNCH_DATE":"2019-11-11","TLE_LINE1":"1 44763U 19074BC  22006.88862346 -.00001195  00000-0 -61371-4 0  9990","TLE_LINE2":"2 44763  53.0543 222.7484 0001995  69.4004 290.7199 15.06386803118672"}];
